ONEWEB-0094             
1 45450U 20020AC  25265.14825599  .00000084  00000+0  18241-3 0  9995
2 45450  87.9063  59.1432 0001687  91.9887 268.1438 13.17649879271019
ONEWEB-0087             
1 45451U 20020AD  25265.00072027  .00000561  00000+0  15469-2 0  9999
2 45451  87.8795  74.4288 0001431  81.1249 279.0042 13.11419052267435
ONEWEB-0082             
1 45452U 20020AE  25264.99746156  .00000608  00000+0  16805-2 0  9995
2 45452  87.8796  74.4549 0001448  88.6534 271.4760 13.11416636267522
ONEWEB-0050             
1 45453U 20020AF  25265.06607768  .00004660  00000+0  49267-3 0  9991
2 45453  88.3154 271.1918 0000744  68.7241 291.4066 14.89053421300462
ONEWEB-0034             
1 45454U 20020AG  25265.17123995  .00000214  00000+0  56856-3 0  9992
2 45454  87.8790  74.4410 0001627  90.9123 269.2192 13.11413784267462
ONEWEB-0060             
1 45455U 20020AH  25265.21871934  .00000364  00000+0  99076-3 0  9998
2 45455  87.8782  74.4572 0000989  42.4621 317.6584 13.11417566267429
ONEWEB-0086             
1 45456U 20020AJ  25265.19751728 -.00000473  00000+0 -13695-2 0  9999
2 45456  87.8790  74.4329 0000887  97.9061 262.2168 13.11417373267484
ONEWEB-0088             
1 45457U 20020AK  25265.17546840 -.00000062  00000+0 -20985-3 0  9990
2 45457  87.8794  74.3847 0001730  87.3872 272.7454 13.11413402267410
